{"type": "FeatureCollection", "features": [ {"type": "Feature", "properties": {"norad_id": 67021, "name": "STARLINK-36184", "group": "last-30-days", "lat": 66.2308983219478, "lon": 59.255164857493476, "alt_km": 306.9439429687727, "timestamp": "2025-12-22T14:45:56.100083+00:00", "meta": {"OBJECT_NAME": "STARLINK-36184", "OBJECT_ID": "2025-293U", "EPOCH": "2025-12-22T06:00:02.000160", "MEAN_MOTION": 15.88034344, "ECCENTRICITY": 0.00041491, "INCLINATION": 69.9927, "RA_OF_ASC_NODE": 296.1387, "ARG_OF_PERICENTER": 272.8226, "MEAN_ANOMALY": 263.8449, "EPHEMERIS_TYPE": 0, "CLASSIFICATION_TYPE": "U", "NORAD_CAT_ID": 67021, "ELEMENT_SET_NO": 999, "REV_AT_EPOCH": 175, "BSTAR": -0.006505971, "MEAN_MOTION_DOT": -0.01531516, "MEAN_MOTION_DDOT": 0}, "tle": {"line1": "1 67021U 25293U   25356.25002315 -.01531516  00000+0 -65060-2 0  9998", "line2": "2 67021  69.9927 296.1387 0004149 272.8226 263.8449 15.88034344  1752"}}, "geometry": {"type": "Point", "coordinates": [59.255164857493476, 66.2308983219478]}}, {"type": "Feature", "properties": {"norad_id": 67022, "name": "STARLINK-36209", "group": "last-30-days", "lat": 64.46904018921494, "lon": 65.36182894949334, "alt_km": 306.955879985464, "timestamp": "2025-12-22T14:45:56.100093+00:00", "meta": {"OBJECT_NAME": "STARLINK-36209", "OBJECT_ID": "2025-293V", "EPOCH": "2025-12-22T06:00:02.000160", "MEAN_MOTION": 15.88010335, "ECCENTRICITY": 0.00038812, "INCLINATION": 69.9925, "RA_OF_ASC_NODE": 296.1351, "ARG_OF_PERICENTER": 269.7853, "MEAN_ANOMALY": 270.0131, "EPHEMERIS_TYPE": 0, "CLASSIFICATION_TYPE": "U", "NORAD_CAT_ID": 67022, "ELEMENT_SET_NO": 999, "REV_AT_EPOCH": 175, "BSTAR": -0.0065541667, "MEAN_MOTION_DOT": -0.0157234, "MEAN_MOTION_DDOT": 0}, "tle": {"line1": "1 67022U 25293V   25356.25002315 -.01572340  00000+0 -65542-2 0  9994", "line2": "2 67022  69.9925 296.1351 0003881 269.7853 270.0131 15.88010335  1757"}}, "geometry": {"type": "Point", "coordinates": [65.36182894949334, 64.46904018921494]}}, {"type": "Feature", "properties": {"norad_id": 67023, "name": "STARLINK-36191", "group": "last-30-days", "lat": 62.82854689338486, "lon": 69.85179624569636, "alt_km": 307.2064721114921, "timestamp": "2025-12-22T14:45:56.100103+00:00", "meta": {"OBJECT_NAME": "STARLINK-36191", "OBJECT_ID": "2025-293W", "EPOCH": "2025-12-22T06:00:02.000160", "MEAN_MOTION": 15.87993486, "ECCENTRICITY": 0.00039769, "INCLINATION": 69.9924, "RA_OF_ASC_NODE": 296.1315, "ARG_OF_PERICENTER": 269.5372, "MEAN_ANOMALY": 272.8651, "EPHEMERIS_TYPE": 0, "CLASSIFICATION_TYPE": "U", "NORAD_CAT_ID": 67023, "ELEMENT_SET_NO": 999, "REV_AT_EPOCH": 164, "BSTAR": -0.0065800912, "MEAN_MOTION_DOT": -0.01576755, "MEAN_MOTION_DDOT": 0}, "tle": {"line1": "1 67023U 25293W   25356.25002315 -.01576755  00000+0 -65801-2 0  9997", "line2": "2 67023  69.9924 296.1315 0003976 269.5372 272.8651 15.87993486  1647"}}, "geometry": {"type": "Point", "coordinates": [69.85179624569636, 62.82854689338486]}}, {"type": "Feature", "properties": {"norad_id": 67024, "name": "STARLINK-36192", "group": "last-30-days", "lat": 60.8411269703943, "lon": 74.30095358159642, "alt_km": 307.4041779592608, "timestamp": "2025-12-22T14:45:56.100115+00:00", "meta": {"OBJECT_NAME": "STARLINK-36192", "OBJECT_ID": "2025-293X", "EPOCH": "2025-12-22T06:00:02.000160", "MEAN_MOTION": 15.87959643, "ECCENTRICITY": 0.00038949, "INCLINATION": 69.9929, "RA_OF_ASC_NODE": 296.1285, "ARG_OF_PERICENTER": 269.58, "MEAN_ANOMALY": 275.7505, "EPHEMERIS_TYPE": 0, "CLASSIFICATION_TYPE": "U", "NORAD_CAT_ID": 67024, "ELEMENT_SET_NO": 999, "REV_AT_EPOCH": 175, "BSTAR": -0.0065596527, "MEAN_MOTION_DOT": -0.01570003, "MEAN_MOTION_DDOT": 0}, "tle": {"line1": "1 67024U 25293X   25356.25002315 -.01570003  00000+0 -65597-2 0  9990", "line2": "2 67024  69.9929 296.1285 0003894 269.5800 275.7505 15.87959643  1753"}}, "geometry": {"type": "Point", "coordinates": [74.30095358159642, 60.8411269703943]}}, {"type": "Feature", "properties": {"norad_id": 67025, "name": "STARLINK-36178", "group": "last-30-days", "lat": 59.09929362388806, "lon": 77.567776373168, "alt_km": 307.6745034965634, "timestamp": "2025-12-22T14:45:56.100126+00:00", "meta": {"OBJECT_NAME": "STARLINK-36178", "OBJECT_ID": "2025-293Y", "EPOCH": "2025-12-22T06:00:02.000160", "MEAN_MOTION": 15.87936785, "ECCENTRICITY": 0.00039866, "INCLINATION": 69.9927, "RA_OF_ASC_NODE": 296.1255, "ARG_OF_PERICENTER": 270.4098, "MEAN_ANOMALY": 277.3309, "EPHEMERIS_TYPE": 0, "CLASSIFICATION_TYPE": "U", "NORAD_CAT_ID": 67025, "ELEMENT_SET_NO": 999, "REV_AT_EPOCH": 175, "BSTAR": -0.0065157333, "MEAN_MOTION_DOT": -0.01526856, "MEAN_MOTION_DDOT": 0}, "tle": {"line1": "1 67025U 25293Y   25356.25002315 -.01526856  00000+0 -65157-2 0  9990", "line2": "2 67025  69.9927 296.1255 0003986 270.4098 277.3309 15.87936785  1753"}}, "geometry": {"type": "Point", "coordinates": [77.567776373168, 59.09929362388806]}}, {"type": "Feature", "properties": {"norad_id": 67026, "name": "STARLINK-36176", "group": "last-30-days", "lat": 55.052958426583245, "lon": 83.6380711387098, "alt_km": 307.8799200412077, "timestamp": "2025-12-22T14:45:56.100136+00:00", "meta": {"OBJECT_NAME": "STARLINK-36176", "OBJECT_ID": "2025-293Z", "EPOCH": "2025-12-22T06:00:02.000160", "MEAN_MOTION": 15.8789827, "ECCENTRICITY": 0.00037795, "INCLINATION": 69.9924, "RA_OF_ASC_NODE": 296.1193, "ARG_OF_PERICENTER": 263.2395, "MEAN_ANOMALY": 289.7709, "EPHEMERIS_TYPE": 0, "CLASSIFICATION_TYPE": "U", "NORAD_CAT_ID": 67026, "ELEMENT_SET_NO": 999, "REV_AT_EPOCH": 175, "BSTAR": -0.0065475025, "MEAN_MOTION_DOT": -0.01530449, "MEAN_MOTION_DDOT": 0}, "tle": {"line1": "1 67026U 25293Z   25356.25002315 -.01530449  00000+0 -65475-2 0  9997", "line2": "2 67026  69.9924 296.1193 0003779 263.2395 289.7709 15.87898270  1759"}}, "geometry": {"type": "Point", "coordinates": [83.6380711387098, 55.052958426583245]}}, {"type": "Feature", "properties": {"norad_id": 67027, "name": "STARLINK-36171", "group": "last-30-days", "lat": 56.83077370308612, "lon": 81.18546592863659, "alt_km": 307.9950530324486, "timestamp": "2025-12-22T14:45:56.100146+00:00", "meta": {"OBJECT_NAME": "STARLINK-36171", "OBJECT_ID": "2025-293AA", "EPOCH": "2025-12-22T06:00:02.000160", "MEAN_MOTION": 15.87906937, "ECCENTRICITY": 0.00040101, "INCLINATION": 69.9922, "RA_OF_ASC_NODE": 296.1221, "ARG_OF_PERICENTER": 270.3922, "MEAN_ANOMALY": 280.3576, "EPHEMERIS_TYPE": 0, "CLASSIFICATION_TYPE": "U", "NORAD_CAT_ID": 67027, "ELEMENT_SET_NO": 999, "REV_AT_EPOCH": 175, "BSTAR": -0.0065362665, "MEAN_MOTION_DOT": -0.01529049, "MEAN_MOTION_DDOT": 0}, "tle": {"line1": "1 67027U 25293AA  25356.25002315 -.01529049  00000+0 -65363-2 0  9998", "line2": "2 67027  69.9922 296.1221 0004010 270.3922 280.3576 15.87906937  1753"}}, "geometry": {"type": "Point", "coordinates": [81.18546592863659, 56.83077370308612]}}, {"type": "Feature", "properties": {"norad_id": 67028, "name": "STARLINK-36132", "group": "last-30-days", "lat": 50.7147694259556, "lon": 88.60935439447, "alt_km": 308.84283555692946, "timestamp": "2025-12-22T14:45:56.100158+00:00", "meta": {"OBJECT_NAME": "STARLINK-36132", "OBJECT_ID": "2025-293AB", "EPOCH": "2025-12-22T06:00:02.000160", "MEAN_MOTION": 15.87866829, "ECCENTRICITY": 0.00040691, "INCLINATION": 69.9926, "RA_OF_ASC_NODE": 296.1131, "ARG_OF_PERICENTER": 271.751, "MEAN_ANOMALY": 286.5716, "EPHEMERIS_TYPE": 0, "CLASSIFICATION_TYPE": "U", "NORAD_CAT_ID": 67028, "ELEMENT_SET_NO": 999, "REV_AT_EPOCH": 175, "BSTAR": -0.0066107461, "MEAN_MOTION_DOT": -0.01574523, "MEAN_MOTION_DDOT": 0}, "tle": {"line1": "1 67028U 25293AB  25356.25002315 -.01574523  00000+0 -66107-2 0  9993", "line2": "2 67028  69.9926 296.1131 0004069 271.7510 286.5716 15.87866829  1759"}}, "geometry": {"type": "Point", "coordinates": [88.60935439447, 50.7147694259556]}}, {"type": "Feature", "properties": {"norad_id": 67029, "name": "STARLINK-36190", "group": "last-30-days", "lat": 53.12294116976399, "lon": 86.00399323071767, "alt_km": 308.53395827886834, "timestamp": "2025-12-22T14:45:56.100171+00:00", "meta": {"OBJECT_NAME": "STARLINK-36190", "OBJECT_ID": "2025-293AC", "EPOCH": "2025-12-22T06:00:02.000160", "MEAN_MOTION": 15.87896235, "ECCENTRICITY": 0.00041041, "INCLINATION": 69.9927, "RA_OF_ASC_NODE": 296.1167, "ARG_OF_PERICENTER": 272.0531, "MEAN_ANOMALY": 283.3388, "EPHEMERIS_TYPE": 0, "CLASSIFICATION_TYPE": "U", "NORAD_CAT_ID": 67029, "ELEMENT_SET_NO": 999, "REV_AT_EPOCH": 175, "BSTAR": -0.0066081336, "MEAN_MOTION_DOT": -0.01576054, "MEAN_MOTION_DDOT": 0}, "tle": {"line1": "1 67029U 25293AC  25356.25002315 -.01576054  00000+0 -66081-2 0  9996", "line2": "2 67029  69.9927 296.1167 0004104 272.0531 283.3388 15.87896235  1751"}}, "geometry": {"type": "Point", "coordinates": [86.00399323071767, 53.12294116976399]}}, {"type": "Feature", "properties": {"norad_id": 67030, "name": "STARLINK-36138", "group": "last-30-days", "lat": 37.19696951462282, "lon": 176.26117607067593, "alt_km": 319.3751092176308, "timestamp": "2025-12-22T14:45:56.100181+00:00", "meta": {"OBJECT_NAME": "STARLINK-36138", "OBJECT_ID": "2025-294A", "EPOCH": "2025-12-22T06:00:02.000160", "MEAN_MOTION": 15.83752827, "ECCENTRICITY": 0.00014784, "INCLINATION": 42.9998, "RA_OF_ASC_NODE": 123.9669, "ARG_OF_PERICENTER": 268.3704, "MEAN_ANOMALY": 230.3268, "EPHEMERIS_TYPE": 0, "CLASSIFICATION_TYPE": "U", "NORAD_CAT_ID": 67030, "ELEMENT_SET_NO": 999, "REV_AT_EPOCH": 164, "BSTAR": -0.009404361, "MEAN_MOTION_DOT": -0.01881637, "MEAN_MOTION_DDOT": 0}, "tle": {"line1": "1 67030U 25294A   25356.25002315 -.01881637  00000+0 -94044-2 0  9995", "line2": "2 67030  42.9998 123.9669 0001478 268.3704 230.3268 15.83752827  1648"}}, "geometry": {"type": "Point", "coordinates": [176.26117607067593, 37.19696951462282]}}]}